STARLINK-1297
1 45395U 20019AM  26090.91671296  .00124531  00000+0  15774-2 0  9997
2 45395  53.0468  23.0289 0006071 111.8595 290.4264 15.58580608  5987
